{"type":"FeatureCollection","name":"messy_cassia.csv","ingested":"2026-08-05","rows_ungeocoded":1,"features":[{"type":"Feature","properties":{"Name":"Journal adit","lat":"","long":"","Easting":"","Northing":"","Zone":"","Legal / Location":"T12S R22E Sec 14, Cassia ID","Notes":"caved 1934; ore on dump per 1912 journal","_geocode":"plss","plss_id":"ID080120S0220E0SN140","plss_lab":"T12S R22E Sec 14"},"geometry":{"type":"Point","coordinates":[-113.843615,42.38022]}},{"type":"Feature","properties":{"Name":"Basin creek placer","lat":"42.1876","long":"-113.6541","Easting":"","Northing":"","Zone":"","Legal / Location":"","Notes":"from handheld GPS","_geocode":"latlon"},"geometry":{"type":"Point","coordinates":[-113.6541,42.1876]}},{"type":"Feature","properties":{"Name":"Shaft (grandpa's topo)","lat":"","long":"","Easting":"262374","Northing":"4680440","Zone":"12T","Legal / Location":"","Notes":"pricked from 1962 quad","_geocode":"utm z12"},"geometry":{"type":"Point","coordinates":[-113.879998,42.239998]}},{"type":"Feature","properties":{"Name":"Sunset group","lat":"","long":"","Easting":"","Northing":"","Zone":"","Legal / Location":"T. 13 S., R. 22 E., Sec. 5","Notes":"two shafts; tailings visible","_geocode":"plss","plss_id":"ID080130S0220E0SN050","plss_lab":"T13S R22E Sec 5"},"geometry":{"type":"Point","coordinates":[-113.900513,42.32399]}},{"type":"Feature","properties":{"Name":"Marion No. 2","lat":"","long":"","Easting":"","Northing":"","Zone":"","Legal / Location":"T15S R23E sec 22","Notes":"assay note: 1.1 oz/ton","_geocode":"plss","plss_id":"ID080150S0230E0SN220","plss_lab":"T15S R23E Sec 22"},"geometry":{"type":"Point","coordinates":[-113.755682,42.104783]}}]}