{"features":[{"geometry":{"coordinates":[[-114.9211,35.45251,1054.59],[-114.9211,35.45251,932.67]],"type":"LineString"},"properties":{"azimuth":0.0,"confidence":"described","defaults":["dip_deg"],"depth_m":121.92,"dip":90.0,"element_id":"e3","fields":{"depth_m":"described","dip_deg":"described"},"height_m":2.5,"layer":"workings","length_m":121.9,"level":"","level_z":null,"mine":"","name":"shaft","notes":"digitised from a written description; not a survey","quote":"There are two shafts on the property, an incline about 300 feet deep and a well- constructed vertical shaft 400 feet deep.","source":{"doc":"USGS Bulletin 906-D, Geology of the Searchlight District, Clark County, Nevada (Eugene Callaghan, 1939), p. 163","mine":"Quartette mine","mine_id":"grades:44","spec_id":"s62e62a99","url":"https://pubs.usgs.gov/bul/0906d/report.pdf"},"span":[6754,6881],"type":"shaft","units_in":"ft","width_m":2.5},"type":"Feature"}],"properties":{"mine":"Quartette mine","schema":"nwmm-workings/1"},"type":"FeatureCollection"}