{"features":[{"geometry":{"coordinates":[[-112.11218,39.93217,2145.1],[-112.11218,39.93217,-3.74]],"type":"LineString"},"properties":{"azimuth":180.0,"confidence":"described","defaults":["dip_deg"],"depth_m":2148.84,"dip":90.0,"element_id":"e1","fields":{"bearing_deg":"described","depth_m":"described","dip_deg":"described"},"height_m":2.5,"layer":"workings","length_m":2148.8,"level":"","level_z":null,"mine":"","name":"shaft","notes":"digitised from a written description; not a survey","quote":"ment can not be measured exactly, but jn the thrust is shown by a prospect shaft just south quartzite area it -must at least \u00b7exceed 2,00() of the fault line and nearly due south of the feet, as north of the gulch there is no in-d.i9ation 7,050-foot summit.","source":{"doc":"USGS MRDS Production_detail (dep_id 10020237)","mine":"Mammoth mine","mine_id":"grades:112","spec_id":"s8ac705dc","url":"https://mrdata.usgs.gov/mrds/show-mrds.php?dep_id=10020237"},"span":[5321,5582],"type":"shaft","units_in":"ft","width_m":2.5},"type":"Feature"},{"geometry":{"coordinates":[[-112.11218,39.93217,2145.1],[-112.11218,39.93217,1820.48]],"type":"LineString"},"properties":{"azimuth":0.0,"confidence":"described","defaults":["dip_deg"],"depth_m":324.612,"dip":90.0,"element_id":"e10","fields":{"depth_m":"described","dip_deg":"described"},"height_m":2.5,"layer":"workings","length_m":324.6,"level":"","level_z":null,"mine":"","name":"shaft","notes":"digitised from a written description; not a survey","quote":"A vertical shaft has been sunk since 1897 to a depth of 1,065 feet for the development of both iron-ore and vein deposits of the property.","source":{"doc":"USGS MRDS Production_detail (dep_id 10020237)","mine":"Mammoth mine","mine_id":"grades:112","spec_id":"s8ac705dc","url":"https://mrdata.usgs.gov/mrds/show-mrds.php?dep_id=10020237"},"span":[21961,22103],"type":"shaft","units_in":"ft","width_m":2.5},"type":"Feature"},{"geometry":{"coordinates":[[-112.11218,39.93217,2145.1],[-112.11218,39.93217,2139.0]],"type":"LineString"},"properties":{"azimuth":0.0,"confidence":"described","defaults":["dip_deg"],"depth_m":6.096,"dip":90.0,"element_id":"e4","fields":{"depth_m":"described","dip_deg":"described","secondary_m":"described"},"height_m":2.5,"layer":"workings","length_m":6.1,"level":"","level_z":null,"mine":"","name":"shaft","notes":"digitised from a written description; not a survey","quote":"The dimensions, though.irreg- At the time of the earlier report on the dis- u1ar, are about 20 by 20 feet to 60 by 40 feet trict the shaft was only 850 feet deep.","source":{"doc":"USGS MRDS Production_detail (dep_id 10020237)","mine":"Mammoth mine","mine_id":"grades:112","spec_id":"s8ac705dc","url":"https://mrdata.usgs.gov/mrds/show-mrds.php?dep_id=10020237"},"span":[15490,15654],"type":"shaft","units_in":"ft","width_m":2.5},"type":"Feature"},{"geometry":{"coordinates":[[-112.11218,39.93217,2145.1],[-112.11218,39.93217,1787.26]],"type":"LineString"},"properties":{"azimuth":0.0,"confidence":"described","defaults":["dip_deg"],"depth_m":357.8352,"dip":90.0,"element_id":"e5","fields":{"depth_m":"described","dip_deg":"described"},"height_m":2.5,"layer":"workings","length_m":357.8,"level":"","level_z":null,"mine":"","name":"shaft","notes":"digitised from a written description; not a survey","quote":"-A small bunch of ore is was struck in this shaft at a depth of 1,174 feet said to have been found along the quartzite and continued beyond the.","source":{"doc":"USGS MRDS Production_detail (dep_id 10020237)","mine":"Mammoth mine","mine_id":"grades:112","spec_id":"s8ac705dc","url":"https://mrdata.usgs.gov/mrds/show-mrds.php?dep_id=10020237"},"span":[19564,19711],"type":"shaft","units_in":"ft","width_m":2.5},"type":"Feature"},{"geometry":{"coordinates":[[-112.11218,39.93217,2145.1],[-112.11218,39.93217,1764.1]],"type":"LineString"},"properties":{"azimuth":0.0,"confidence":"described","defaults":["dip_deg"],"depth_m":381.0,"dip":90.0,"element_id":"e7","fields":{"depth_m":"described","dip_deg":"described","secondary_m":"described"},"height_m":2.5,"layer":"workings","length_m":381.0,"level":"","level_z":null,"mine":"","name":"shaft","notes":"digitised from a written description; not a survey","quote":"specimens from a depth of 1,250 feet range level, close by the new shaft, for a length of 60 feet.","source":{"doc":"USGS MRDS Production_detail (dep_id 10020237)","mine":"Mammoth mine","mine_id":"grades:112","spec_id":"s8ac705dc","url":"https://mrdata.usgs.gov/mrds/show-mrds.php?dep_id=10020237"},"span":[20415,20514],"type":"shaft","units_in":"ft","width_m":2.5},"type":"Feature"},{"geometry":{"coordinates":[[-112.11218,39.93217,2145.1],[-112.1114667,39.9321768,2145.1]],"type":"LineString"},"properties":{"confidence":"described","defaults":[],"element_id":"e8","fields":{"length_m":"described"},"height_m":2.0,"layer":"workings","length_m":61.0,"level":"","level_z":null,"mine":"","name":"pit","notes":"digitised from a written description; not a survey","quote":"Tower and Smith \u00b7 state that it was being worked in 1897 as an open cut 200 feet deep, the ore being loaded on teams and hauled out of the open cut to the surface through large tunnels.","source":{"doc":"USGS MRDS Production_detail (dep_id 10020237)","mine":"Mammoth mine","mine_id":"grades:112","spec_id":"s8ac705dc","url":"https://mrdata.usgs.gov/mrds/show-mrds.php?dep_id=10020237"},"span":[21598,21789],"type":"pit","units_in":"ft","width_m":3.0},"type":"Feature"},{"geometry":{"coordinates":[[-112.11218,39.93217,2145.1],[-112.1121449,39.9321703,2145.1]],"type":"LineString"},"properties":{"confidence":"described","defaults":[],"element_id":"e9","fields":{"level":"described"},"height_m":2.0,"layer":"workings","length_m":3.0,"level":"","level_z":null,"mine":"","name":"pit","notes":"digitised from a written description; not a survey","quote":"259 pit was really deeper,'in part, for on the 300- foot level of the shaft a drift opens to daylight into the pit.","source":{"doc":"USGS MRDS Production_detail (dep_id 10020237)","mine":"Mammoth mine","mine_id":"grades:112","spec_id":"s8ac705dc","url":"https://mrdata.usgs.gov/mrds/show-mrds.php?dep_id=10020237"},"span":[21842,21961],"type":"pit","units_in":"ft","width_m":3.0},"type":"Feature"}],"properties":{"mine":"Mammoth mine","schema":"nwmm-workings/1"},"type":"FeatureCollection"}