{"features":[{"geometry":{"coordinates":[[-117.24008,37.99605,1897.54],[-117.24008,37.99605,1745.14]],"type":"LineString"},"properties":{"azimuth":0.0,"confidence":"described","defaults":["dip_deg"],"depth_m":152.4,"dip":90.0,"element_id":"e1","fields":{"depth_m":"described","dip_deg":"described","from":"described"},"height_m":2.5,"layer":"workings","length_m":152.4,"level":"","level_z":null,"mine":"","name":"shaft","notes":"digitised from a written description; not a survey","quote":"The barrenness of the tops of the lodes in silver has led to the general policy in exploring new lodes to sink shafts to considerable depths as much as 500 feet before crosscutting from the shafts to the lode.","source":{"doc":"USGS Bulletin 715-K, The Divide Silver District, Nevada (Adolph Knopf, 1921), p. 147","mine":"Tonopah Divide mine","mine_id":"grades:12","spec_id":"s71f2e9dd","url":"https://pubs.usgs.gov/bul/0715k/report.pdf"},"span":[3169,3382],"type":"shaft","units_in":"ft","width_m":2.5},"type":"Feature"},{"geometry":{"coordinates":[[-117.24008,37.99605,1897.54],[-117.24008,37.99605,1894.49]],"type":"LineString"},"properties":{"azimuth":0.0,"confidence":"described","defaults":["dip_deg"],"depth_m":3.048,"dip":90.0,"element_id":"e2","fields":{"depth_m":"described","dip_deg":"described"},"height_m":2.5,"layer":"workings","length_m":3.0,"level":"","level_z":null,"mine":"","name":"shaft","notes":"digitised from a written description; not a survey","quote":"It was then seen that at one place in the outcrop a prospector had sunk a shaft 10 feet deep;","source":{"doc":"USGS Bulletin 715-K, The Divide Silver District, Nevada (Adolph Knopf, 1921), p. 147","mine":"Tonopah Divide mine","mine_id":"grades:12","spec_id":"s71f2e9dd","url":"https://pubs.usgs.gov/bul/0715k/report.pdf"},"span":[5111,5206],"type":"shaft","units_in":"ft","width_m":2.5},"type":"Feature"},{"geometry":{"coordinates":[[-117.24008,37.99605,1897.54],[-117.24008,37.99605,1754.29]],"type":"LineString"},"properties":{"azimuth":0.0,"confidence":"described","defaults":["dip_deg"],"depth_m":143.256,"dip":90.0,"element_id":"e3","fields":{"depth_m":"described","dip_deg":"described"},"height_m":2.5,"layer":"workings","length_m":143.3,"level":"","level_z":null,"mine":"","name":"shaft","notes":"digitised from a written description; not a survey","quote":"A rhyolite dike in the Fraction breccia is well shown in an open cut at the end of the dump at the main shaft, and a rhyolite dike has been cut on the 365 and 470 foot levels.","source":{"doc":"USGS Bulletin 715-K, The Divide Silver District, Nevada (Adolph Knopf, 1921), p. 147","mine":"Tonopah Divide mine","mine_id":"grades:12","spec_id":"s71f2e9dd","url":"https://pubs.usgs.gov/bul/0715k/report.pdf"},"span":[6195,6374],"type":"shaft","units_in":"ft","width_m":2.5},"type":"Feature"},{"geometry":{"coordinates":[[-117.24008,37.99605,1816.77],[-117.2411817,37.9951736,1816.77]],"type":"LineString"},"properties":{"bearing":225.0,"confidence":"described","defaults":[],"element_id":"e5","fields":{"bearing_deg":"described","length_m":"described","level":"described"},"height_m":2.1,"layer":"workings","length_m":137.2,"level":"265","level_z":1816.7704043344404,"mine":"","name":"crosscut","notes":"digitised from a written description; not a survey","quote":"The main crosscut on the 265-foot level after cutting through the silver lode was continued southwestward, penetrating the rhyolite stock of Gold Mountain, and at 450 feet from the silver lode it cut a narrow gold vein, probably the downward extension of the gold vein formerly worked higher on the mountain.","source":{"doc":"USGS Bulletin 715-K, The Divide Silver District, Nevada (Adolph Knopf, 1921), p. 147","mine":"Tonopah Divide mine","mine_id":"grades:12","spec_id":"s71f2e9dd","url":"https://pubs.usgs.gov/bul/0715k/report.pdf"},"span":[8017,8330],"type":"crosscut","units_in":"ft","width_m":1.8},"type":"Feature"}],"properties":{"mine":"Tonopah Divide mine","schema":"nwmm-workings/1"},"type":"FeatureCollection"}