{"features":[{"geometry":{"coordinates":[[-112.12385,39.96217,2061.36],[-112.12385,39.96217,202.08]],"type":"LineString"},"properties":{"azimuth":0.0,"confidence":"described","defaults":["dip_deg"],"depth_m":1859.28,"dip":90.0,"element_id":"e1","fields":{"depth_m":"described","dip_deg":"described","secondary_m":"described"},"height_m":2.5,"layer":"workings","length_m":1859.3,"level":"","level_z":null,"mine":"","name":"Gemini","notes":"digitised from a written description; not a survey","quote":"an altitude of 4,800 feet north of the Gemini shaft to 6,100 feet at the shaft, to 6,400 feet at","source":{"doc":"USGS Professional Paper 107, Geology and Ore Deposits of the Tintic Mining District, Utah (W. Lindgren & G.F. Loughlin, 1919), p. 160","mine":"Gemini mine (enargite specimen)","mine_id":"grades:110","spec_id":"s7224a630","url":"https://pubs.usgs.gov/pp/0107/report.pdf"},"span":[6399,6500],"type":"shaft","units_in":"ft","width_m":2.5},"type":"Feature"},{"geometry":{"coordinates":[[-112.12385,39.96217,2061.36],[-112.12385,39.96217,1756.56]],"type":"LineString"},"properties":{"azimuth":0.0,"confidence":"described","defaults":["dip_deg"],"depth_m":304.8,"dip":90.0,"element_id":"e3","fields":{"depth_m":"described","dip_deg":"described"},"height_m":2.5,"layer":"workings","length_m":304.8,"level":"","level_z":null,"mine":"","name":"shaft","notes":"digitised from a written description; not a survey","quote":"Stope 2,300 feet north of shaft which they follow for 1,000 feet as lenses sepa- and 16 most of the ore bodies Tie from 1,000 rated by barren stretches.","source":{"doc":"USGS Professional Paper 107, Geology and Ore Deposits of the Tintic Mining District, Utah (W. Lindgren & G.F. Loughlin, 1919), p. 160","mine":"Gemini mine (enargite specimen)","mine_id":"grades:110","spec_id":"s7224a630","url":"https://pubs.usgs.gov/pp/0107/report.pdf"},"span":[8001,8158],"type":"shaft","units_in":"ft","width_m":2.5},"type":"Feature"},{"geometry":{"coordinates":[[-112.12385,39.96217,2061.36],[-112.12385,39.96217,1665.12]],"type":"LineString"},"properties":{"azimuth":0.0,"confidence":"described","defaults":["dip_deg"],"depth_m":396.24,"dip":90.0,"element_id":"e8","fields":{"depth_m":"described","dip_deg":"described"},"height_m":2.5,"layer":"workings","length_m":396.2,"level":"","level_z":null,"mine":"","name":"shaft","notes":"digitised from a written description; not a survey","quote":"The ore by the writer.1 body found in the new shaft is presumably, Since the writer's last visit to this mine, in like that in the East Tintic Development vein, December, 1916, the new or northern shaft, a replacement vein deposited where solutions having three compartments, has been com- worked their way through a muc;h shattered pleted to a depth of 1,300 feet.","source":{"doc":"USGS Professional Paper 107, Geology and Ore Deposits of the Tintic Mining District, Utah (W. Lindgren & G.F. Loughlin, 1919), p. 160","mine":"Gemini mine (enargite specimen)","mine_id":"grades:110","spec_id":"s7224a630","url":"https://pubs.usgs.gov/pp/0107/report.pdf"},"span":[20242,20614],"type":"shaft","units_in":"ft","width_m":2.5},"type":"Feature"},{"geometry":{"coordinates":[[-112.12385,39.96217,2061.36],[-112.12385,39.96217,1901.34]],"type":"LineString"},"properties":{"azimuth":0.0,"confidence":"described","defaults":["dip_deg"],"depth_m":160.02,"dip":90.0,"element_id":"e9","fields":{"depth_m":"described","dip_deg":"described"},"height_m":2.5,"layer":"workings","length_m":160.0,"level":"","level_z":null,"mine":"","name":"shaft","notes":"digitised from a written description; not a survey","quote":"Raddatz, manager of the mine, the Further developments in this part of the mine upper 525 feet of this shaft is in porphyry (rhy- should afford interesting data regarding the olite), and the remainder in \"","source":{"doc":"USGS Professional Paper 107, Geology and Ore Deposits of the Tintic Mining District, Utah (W. Lindgren & G.F. Loughlin, 1919), p. 160","mine":"Gemini mine (enargite specimen)","mine_id":"grades:110","spec_id":"s7224a630","url":"https://pubs.usgs.gov/pp/0107/report.pdf"},"span":[20688,20896],"type":"shaft","units_in":"ft","width_m":2.5},"type":"Feature"}],"properties":{"mine":"Gemini mine (enargite specimen)","schema":"nwmm-workings/1"},"type":"FeatureCollection"}