{"features":[{"geometry":{"coordinates":[[-112.12246,39.94384,2105.04],[-112.12246,39.94384,1409.79]],"type":"LineString"},"properties":{"azimuth":0.0,"confidence":"described","defaults":["dip_deg"],"depth_m":695.2488,"dip":90.0,"element_id":"e2","fields":{"depth_m":"described","dip_deg":"described"},"height_m":2.5,"layer":"workings","length_m":695.2,"level":"","level_z":null,"mine":"","name":"shaft","notes":"digitised from a written description; not a survey","quote":"\u00b7The deposit is opened by a vertical shaft having a total depth o~ 2,281 feet, penetrating to an altitude of 4,606 feet.","source":{"doc":"USGS Professional Paper 107, Geology and Ore Deposits of the Tintic Mining District, Utah (W. Lindgren & G.F. Loughlin, 1919), p. 201","mine":"Centennial Eureka mine (Gem channel ore)","mine_id":"grades:111","spec_id":"s13cabc04","url":"https://pubs.usgs.gov/pp/0107/report.pdf"},"span":[736,860],"type":"shaft","units_in":"ft","width_m":2.5},"type":"Feature"}],"properties":{"mine":"Centennial Eureka mine (Gem channel ore)","schema":"nwmm-workings/1"},"type":"FeatureCollection"}