{"features":[{"geometry":{"coordinates":[[-112.12329,39.94828,1987.05],[-112.12329,39.94828,1855.99]],"type":"LineString"},"properties":{"azimuth":0.0,"confidence":"described","defaults":["dip_deg"],"depth_m":131.064,"dip":90.0,"element_id":"e1","fields":{"depth_m":"described","dip_deg":"described","level":"described"},"height_m":2.5,"layer":"workings","length_m":131.1,"level":"200","level_z":null,"mine":"","name":"shaft","notes":"digitised from a written description; not a survey","quote":"it adjoins a mass of limestone de- 200-foot level a out 430 feet north of the tritus, the coarse fragments of which ~re dis- shaft the drift c osses an old depression which tinctly oxidized.","source":{"doc":"USGS Professional Paper 107, Geology and Ore Deposits of the Tintic Mining District, Utah (W. Lindgren & G.F. Loughlin, 1919), p. 169-170","mine":"Eureka Hill mine (oxidized copper ore shipment)","mine_id":"grades:109","spec_id":"s879c23b9","url":"https://pubs.usgs.gov/pp/0107/report.pdf"},"span":[3788,3981],"type":"shaft","units_in":"ft","width_m":2.5},"type":"Feature"},{"geometry":{"coordinates":[[-112.12329,39.94828,1987.05],[-112.12329,39.94828,1590.81]],"type":"LineString"},"properties":{"azimuth":0.0,"confidence":"described","defaults":["dip_deg"],"depth_m":396.24,"dip":90.0,"element_id":"e2","fields":{"depth_m":"described","dip_deg":"described","from":"described"},"height_m":2.5,"layer":"workings","length_m":396.2,"level":"","level_z":null,"mine":"","name":"TetrQ","notes":"digitised from a written description; not a survey","quote":"\u00b7 ger and superint ndent of the mine for many .From the 500-foot level there1s a connectiOn years, the wash contained in places float of With the TetrQ shaft, 1,300 feet to the west,.","source":{"doc":"USGS Professional Paper 107, Geology and Ore Deposits of the Tintic Mining District, Utah (W. Lindgren & G.F. Loughlin, 1919), p. 169-170","mine":"Eureka Hill mine (oxidized copper ore shipment)","mine_id":"grades:109","spec_id":"s879c23b9","url":"https://pubs.usgs.gov/pp/0107/report.pdf"},"span":[4730,4917],"type":"shaft","units_in":"ft","width_m":2.5},"type":"Feature"}],"properties":{"mine":"Eureka Hill mine (oxidized copper ore shipment)","schema":"nwmm-workings/1"},"type":"FeatureCollection"}