{"features":[{"geometry":{"coordinates":[[-115.41119,41.83879,2625.76],[-115.4111642,41.8398328,2626.34]],"type":"LineString"},"properties":{"bearing":0.0,"confidence":"described","defaults":[],"element_id":"e1","fields":{"bearing_deg":"described","length_m":"described","level":"described","secondary_m":"described"},"height_m":2.2,"layer":"workings","length_m":115.8,"level":"","level_z":null,"mine":"","name":"tunnel","notes":"digitised from a written description; not a survey","quote":"On the lower level northward for 380 feet from the crosscut tunnel the vein is locally 45 feet in width and in places contained good ore shoots, of which one of the best had a width of 8 feet and averaged $21 to the ton.","source":{"doc":"USGS Bulletin 741, The Jarbidge Mining District, Nevada (F.C. Schrader, 1923), p. 31-32","mine":"Bluster mine","mine_id":"grades:33","spec_id":"sc9fd2575","url":"https://pubs.usgs.gov/bul/0741/report.pdf"},"span":[2609,2833],"type":"adit","units_in":"ft","width_m":2.0},"type":"Feature"},{"geometry":{"coordinates":[[-115.41119,41.83879,2625.76],[-115.4112158,41.8377472,2626.34]],"type":"LineString"},"properties":{"bearing":180.0,"confidence":"described","defaults":[],"element_id":"e2","fields":{"bearing_deg":"described","length_m":"described"},"height_m":2.2,"layer":"workings","length_m":115.8,"level":"","level_z":null,"mine":"","name":"tunnel","notes":"digitised from a written description; not a survey","quote":"For 380 feet southward from the crosscut tunnel the vein for the most part has good walls and shows ore in places.","source":{"doc":"USGS Bulletin 741, The Jarbidge Mining District, Nevada (F.C. Schrader, 1923), p. 31-32","mine":"Bluster mine","mine_id":"grades:33","spec_id":"sc9fd2575","url":"https://pubs.usgs.gov/bul/0741/report.pdf"},"span":[2833,2949],"type":"adit","units_in":"ft","width_m":2.0},"type":"Feature"}],"properties":{"mine":"Bluster mine","schema":"nwmm-workings/1"},"type":"FeatureCollection"}