{"features":[{"geometry":{"coordinates":[[-117.27009,37.99133,1738.6],[-117.27009,37.99133,1668.5]],"type":"LineString"},"properties":{"azimuth":0.0,"confidence":"described","defaults":["dip_deg"],"depth_m":70.104,"dip":90.0,"element_id":"e3","fields":{"depth_m":"described","dip_deg":"described"},"height_m":2.5,"layer":"workings","length_m":70.1,"level":"","level_z":null,"mine":"","name":"shaft","notes":"digitised from a written description; not a survey","quote":"Northwest of the portal of the adit a shaft has been sunk to a depth of 230 feet.","source":{"doc":"USGS Bulletin 715-K, The Divide Silver District, Nevada (Adolph Knopf, 1921), p. 169","mine":"Tonopah Hasbrouck mine (Kernick vein)","mine_id":"grades:15","spec_id":"s54922b99","url":"https://pubs.usgs.gov/bul/0715k/report.pdf"},"span":[860,943],"type":"shaft","units_in":"ft","width_m":2.5},"type":"Feature"},{"geometry":{"coordinates":[[-117.27009,37.99133,1738.6],[-117.2701039,37.99133,1738.61]],"type":"LineString"},"properties":{"bearing":270.0,"confidence":"described","defaults":[],"element_id":"e5","fields":{"bearing_deg":"described","dip_deg":"described","length_m":"described"},"height_m":2.2,"layer":"workings","length_m":1.2,"level":"","level_z":null,"mine":"","name":"adit","notes":"digitised from a written description; not a survey","quote":"The Kernick vein, as seen in the upper workings (above the main adit), trends nearly due west, dips 70\u00b0 N., and averages between 3 and 4 feet in width.","source":{"doc":"USGS Bulletin 715-K, The Divide Silver District, Nevada (Adolph Knopf, 1921), p. 169","mine":"Tonopah Hasbrouck mine (Kernick vein)","mine_id":"grades:15","spec_id":"s54922b99","url":"https://pubs.usgs.gov/bul/0715k/report.pdf"},"span":[1744,1898],"type":"adit","units_in":"ft","width_m":2.0},"type":"Feature"}],"properties":{"mine":"Tonopah Hasbrouck mine (Kernick vein)","schema":"nwmm-workings/1"},"type":"FeatureCollection"}