{"features":[{"geometry":{"coordinates":[[-112.1333,40.54966,1969.16],[-112.1314105,40.5496785,1969.96]],"type":"LineString"},"properties":{"bearing":90.0,"confidence":"described","defaults":[],"element_id":"e2","fields":{"bearing_deg":"described","length_m":"described"},"height_m":2.2,"layer":"workings","length_m":160.0,"level":"","level_z":null,"mine":"","name":"tunnel","notes":"digitised from a written description; not a survey","quote":"The upper tunnel enters a strong fissure, after passing eastward 525 feet through quartzite.","source":{"doc":"USGS MRDS Analytical_data (dep_id 10021049)","mine":"Midland","mine_id":"grades:2032","spec_id":"sa36b775b","url":"https://mrdata.usgs.gov/mrds/show-mrds.php?dep_id=10021049"},"span":[269,363],"type":"adit","units_in":"ft","width_m":2.0},"type":"Feature"},{"geometry":{"coordinates":[[-112.1333,40.54966,1969.16],[-112.1318823,40.548606,1970.0]],"type":"LineString"},"properties":{"bearing":135.0,"confidence":"described","defaults":[],"element_id":"e4","fields":{"bearing_deg":"described","length_m":"described","secondary_m":"described"},"height_m":2.2,"layer":"workings","length_m":167.6,"level":"","level_z":null,"mine":"","name":"tunnel","notes":"digitised from a written description; not a survey","quote":"The lower tunnel enters quartzite 550 feet below and 1,350 feet northeast of the upper, strikes a fracture zone, and except for incidental departures follows it southeastward for nearly 800 feet The zone trends N. 10\u00b0 to 20\u00b0 W. and dips westward at angles ranging from 65\u00b0 to 80\u00b0, the average being 70\u00b0, and varies in thickness from a close fissure to 4 feet For the greater portion of its course it lies within quartzite walls and carries stained ocherous material.","source":{"doc":"USGS MRDS Analytical_data (dep_id 10021049)","mine":"Midland","mine_id":"grades:2032","spec_id":"sa36b775b","url":"https://mrdata.usgs.gov/mrds/show-mrds.php?dep_id=10021049"},"span":[609,1083],"type":"adit","units_in":"ft","width_m":2.0},"type":"Feature"}],"properties":{"mine":"Midland","schema":"nwmm-workings/1"},"type":"FeatureCollection"}