{"features":[{"geometry":{"coordinates":[[-117.57083,41.83806,1924.6],[-117.5700958,41.8380636,1924.6]],"type":"LineString"},"properties":{"confidence":"described","defaults":[],"element_id":"e16","fields":{"length_m":"described"},"height_m":2.0,"layer":"workings","length_m":61.0,"level":"","level_z":null,"mine":"","name":"portal","notes":"digitised from a written description; not a survey","quote":"The portal of the tunnel and the first 200 feet are in rhyolite;","source":{"doc":"USGS Bulletin 601, The National Mining District, Nevada (Waldemar Lindgren, 1915), p. 21","mine":"National mine (Stall Bros. lease, gold shoot)","mine_id":"grades:9","spec_id":"seab65071","url":"https://pubs.usgs.gov/bul/0601/report.pdf"},"span":[24883,24949],"type":"portal","units_in":"ft","width_m":2.0},"type":"Feature"},{"geometry":{"coordinates":[[-117.57083,41.83806,1924.6],[-117.57083,41.83806,1915.45]],"type":"LineString"},"properties":{"azimuth":0.0,"confidence":"described","defaults":["dip_deg"],"depth_m":9.144,"dip":90.0,"element_id":"e1","fields":{"depth_m":"described","dip_deg":"described"},"height_m":2.5,"layer":"workings","length_m":9.1,"level":"","level_z":null,"mine":"","name":"Stall","notes":"digitised from a written description; not a survey","quote":"Similar ore was discovered near the surface 30 feet south of the Stall shaft, practically at the outcrops of the National vein.","source":{"doc":"USGS Bulletin 601, The National Mining District, Nevada (Waldemar Lindgren, 1915), p. 21","mine":"National mine (Stall Bros. lease, gold shoot)","mine_id":"grades:9","spec_id":"seab65071","url":"https://pubs.usgs.gov/bul/0601/report.pdf"},"span":[6863,6992],"type":"shaft","units_in":"ft","width_m":2.5},"type":"Feature"},{"geometry":{"coordinates":[[-117.57083,41.83806,1924.6],[-117.57083,41.83806,1827.06]],"type":"LineString"},"properties":{"azimuth":0.0,"confidence":"described","defaults":["dip_deg"],"depth_m":97.536,"dip":90.0,"element_id":"e14","fields":{"depth_m":"described","dip_deg":"described","from":"described","secondary_m":"described"},"height_m":2.5,"layer":"workings","length_m":97.5,"level":"","level_z":null,"mine":"","name":"shaft","notes":"digitised from a written description; not a survey","quote":"At a point 320 feet from the portal a shaft was sunk to a depth of 130 feet.","source":{"doc":"USGS Bulletin 601, The National Mining District, Nevada (Waldemar Lindgren, 1915), p. 21","mine":"National mine (Stall Bros. lease, gold shoot)","mine_id":"grades:9","spec_id":"seab65071","url":"https://pubs.usgs.gov/bul/0601/report.pdf"},"span":[24222,24300],"type":"shaft","units_in":"ft","width_m":2.5},"type":"Feature"},{"geometry":{"coordinates":[[-117.57083,41.83806,1924.6],[-117.57083,41.83806,1899.6]],"type":"LineString"},"properties":{"azimuth":0.0,"confidence":"described","defaults":["dip_deg"],"depth_m":24.9936,"dip":90.0,"element_id":"e19","fields":{"depth_m":"described","dip_deg":"described"},"height_m":2.5,"layer":"workings","length_m":25.0,"level":"","level_z":null,"mine":"","name":"shaft","notes":"digitised from a written description; not a survey","quote":"Near the portal a shaft was sunk to a depth of 82 feet, and in this probably the same stringer was cut.","source":{"doc":"USGS Bulletin 601, The National Mining District, Nevada (Waldemar Lindgren, 1915), p. 21","mine":"National mine (Stall Bros. lease, gold shoot)","mine_id":"grades:9","spec_id":"seab65071","url":"https://pubs.usgs.gov/bul/0601/report.pdf"},"span":[25639,25745],"type":"shaft","units_in":"ft","width_m":2.5},"type":"Feature"},{"geometry":{"coordinates":[[-117.57083,41.83806,1924.6],[-117.5720868,41.8387088,1925.23]],"type":"LineString"},"properties":{"bearing":305.0,"confidence":"described","defaults":[],"element_id":"e9","fields":{"bearing_deg":"described","length_m":"described"},"height_m":2.2,"layer":"workings","length_m":126.8,"level":"","level_z":null,"mine":"","name":"tunnel","notes":"digitised from a written description; not a survey","quote":"The crosscut tunnel trends N. 55\u00b0 W. and encounters a vein at 416 feet.","source":{"doc":"USGS Bulletin 601, The National Mining District, Nevada (Waldemar Lindgren, 1915), p. 21","mine":"National mine (Stall Bros. lease, gold shoot)","mine_id":"grades:9","spec_id":"seab65071","url":"https://pubs.usgs.gov/bul/0601/report.pdf"},"span":[21194,21268],"type":"adit","units_in":"ft","width_m":2.0},"type":"Feature"}],"properties":{"mine":"National mine (Stall Bros. lease, gold shoot)","schema":"nwmm-workings/1"},"type":"FeatureCollection"}