{"features":[{"geometry":{"coordinates":[[-114.4739,37.90107,1782.99],[-114.4739,37.90107,6.01]],"type":"LineString"},"properties":{"azimuth":0.0,"confidence":"described","defaults":["dip_deg"],"depth_m":1776.984,"dip":90.0,"element_id":"e1","fields":{"depth_m":"described","dip_deg":"described"},"height_m":2.5,"layer":"workings","length_m":1777.0,"level":"","level_z":null,"mine":"","name":"Louise","notes":"digitised from a written description; not a survey","quote":"Louise shaft is 5,830 feet, and that of the Prince ver- tical shaft is 5,855 feet.","source":{"doc":"USGS MRDS Production_detail (dep_id 10008111)","mine":"Prince mine","mine_id":"grades:124","spec_id":"s2f665f3b","url":"https://mrdata.usgs.gov/mrds/show-mrds.php?dep_id=10008111"},"span":[0,83],"type":"shaft","units_in":"ft","width_m":2.5},"type":"Feature"},{"geometry":{"coordinates":[[-114.4739,37.90107,1782.99],[-114.4739,37.90107,-1.61]],"type":"LineString"},"properties":{"azimuth":0.0,"confidence":"described","defaults":["dip_deg"],"depth_m":1784.604,"dip":90.0,"element_id":"e2","fields":{"depth_m":"described","dip_deg":"described"},"height_m":2.5,"layer":"workings","length_m":1784.6,"level":"","level_z":null,"mine":"","name":"shaft","notes":"digitised from a written description; not a survey","quote":"Louise shaft is 5,830 feet, and that of the Prince ver- tical shaft is 5,855 feet.","source":{"doc":"USGS MRDS Production_detail (dep_id 10008111)","mine":"Prince mine","mine_id":"grades:124","spec_id":"s2f665f3b","url":"https://mrdata.usgs.gov/mrds/show-mrds.php?dep_id=10008111"},"span":[0,83],"type":"shaft","units_in":"ft","width_m":2.5},"type":"Feature"}],"properties":{"mine":"Prince mine","schema":"nwmm-workings/1"},"type":"FeatureCollection"}