{"features":[{"geometry":{"coordinates":[[-116.69982,40.31685,1722.38],[-116.69982,40.31685,1600.46]],"type":"LineString"},"properties":{"azimuth":0.0,"confidence":"described","defaults":["dip_deg"],"depth_m":121.92,"dip":90.0,"element_id":"e2","fields":{"depth_m":"described","dip_deg":"described","secondary_m":"described"},"height_m":2.5,"layer":"workings","length_m":121.9,"level":"","level_z":null,"mine":"","name":"This","notes":"digitised from a written description; not a survey","quote":"This shaft is 400 feet long and on the four levels turned from it there are altogether about 900 feet of drifts.","source":{"doc":"USGS MRDS Comments/Production (dep_id 10044891)","mine":"Little Gem","mine_id":"grades:2641","spec_id":"s67249b54","url":"https://mrdata.usgs.gov/mrds/show-mrds.php?dep_id=10044891"},"span":[238,353],"type":"shaft","units_in":"ft","width_m":2.5},"type":"Feature"},{"geometry":{"coordinates":[[-116.69982,40.31685,1722.38],[-116.69982,40.31685,1628.5]],"type":"LineString"},"properties":{"azimuth":0.0,"confidence":"described","defaults":["dip_deg"],"depth_m":93.8784,"dip":90.0,"element_id":"e3","fields":{"depth_m":"described","dip_deg":"described","secondary_m":"described"},"height_m":2.5,"layer":"workings","length_m":93.9,"level":"","level_z":null,"mine":"","name":"shaft","notes":"digitised from a written description; not a survey","quote":"A vertical two-compartment shaft is down 308 feet, with short' levels turned at intervals of 35, 100, 150, and 275 feet","source":{"doc":"USGS MRDS Comments/Production (dep_id 10044891)","mine":"Little Gem","mine_id":"grades:2641","spec_id":"s67249b54","url":"https://mrdata.usgs.gov/mrds/show-mrds.php?dep_id=10044891"},"span":[2456,2580],"type":"shaft","units_in":"ft","width_m":2.5},"type":"Feature"},{"geometry":{"coordinates":[[-116.69982,40.31685,1722.38],[-116.69982,40.31685,1711.71]],"type":"LineString"},"properties":{"azimuth":0.0,"confidence":"described","defaults":["dip_deg"],"depth_m":10.668,"dip":90.0,"element_id":"e4","fields":{"depth_m":"described","dip_deg":"described","secondary_m":"described"},"height_m":2.5,"layer":"workings","length_m":10.7,"level":"","level_z":null,"mine":"","name":"shaft","notes":"digitised from a written description; not a survey","quote":"In the main shaft, between the 35-foot and 100- foot levels, there is a body of shattered, altered quartzite, which is cut by stringers of iron oxide carrying free gold.","source":{"doc":"USGS MRDS Comments/Production (dep_id 10044891)","mine":"Little Gem","mine_id":"grades:2641","spec_id":"s67249b54","url":"https://mrdata.usgs.gov/mrds/show-mrds.php?dep_id=10044891"},"span":[3051,3223],"type":"shaft","units_in":"ft","width_m":2.5},"type":"Feature"}],"properties":{"mine":"Little Gem","schema":"nwmm-workings/1"},"type":"FeatureCollection"}