{"features":[{"geometry":{"coordinates":[[-118.17986,40.26157,1687.94],[-118.17986,40.26157,1616.31]],"type":"LineString"},"properties":{"azimuth":0.0,"confidence":"described","defaults":["dip_deg"],"depth_m":71.628,"dip":90.0,"element_id":"e1","fields":{"depth_m":"described","dip_deg":"described"},"height_m":2.5,"layer":"workings","length_m":71.6,"level":"","level_z":null,"mine":"","name":"shaft","notes":"digitised from a written description; not a survey","quote":"In the Nevada Packard water level was cut in a prospect shaft at a depth of 235 feet below the lowest adit, 43","source":{"doc":"USGS Bulletin 762, Geology and Ore Deposits of the Rochester District, Nevada (Adolph Knopf, 1924), p. 73","mine":"Nevada Packard mine (Margrave cut)","mine_id":"grades:42","spec_id":"s7a917350","url":"https://pubs.usgs.gov/bul/0762/report.pdf"},"span":[257,372],"type":"shaft","units_in":"ft","width_m":2.5},"type":"Feature"},{"geometry":{"coordinates":[[-118.17986,40.26157,1687.94],[-118.1793224,40.2615755,1687.94]],"type":"LineString"},"properties":{"confidence":"described","defaults":[],"element_id":"e2","fields":{"length_m":"described","secondary_m":"described"},"height_m":2.0,"layer":"workings","length_m":45.7,"level":"","level_z":null,"mine":"","name":"pit","notes":"digitised from a written description; not a survey","quote":"It is in an ex- tremely hard mottled blue and white massive rhyolite, known locally as the \" hard blue.\" The fact that this rock is ore runs counter to all ideas as to what ore should look like., The pit is 150 feet long and 100 feet wide and attains an extreme depth of about 30 feet.","source":{"doc":"USGS Bulletin 762, Geology and Ore Deposits of the Rochester District, Nevada (Adolph Knopf, 1924), p. 73","mine":"Nevada Packard mine (Margrave cut)","mine_id":"grades:42","spec_id":"s7a917350","url":"https://pubs.usgs.gov/bul/0762/report.pdf"},"span":[602,892],"type":"pit","units_in":"ft","width_m":3.0},"type":"Feature"},{"geometry":{"coordinates":[[-118.17986,40.26157,1687.94],[-118.1798247,40.2615704,1687.94]],"type":"LineString"},"properties":{"confidence":"described","defaults":[],"element_id":"e6","fields":{"bearing_deg":"described"},"height_m":2.0,"layer":"workings","length_m":3.0,"level":"","level_z":null,"mine":"","name":"pit","notes":"digitised from a written description; not a survey","quote":"In 1919 the mainstay of the mine was the Margrave cut, a large elliptical pit trending N. 25\u00b0 E.","source":{"doc":"USGS Bulletin 762, Geology and Ore Deposits of the Rochester District, Nevada (Adolph Knopf, 1924), p. 73","mine":"Nevada Packard mine (Margrave cut)","mine_id":"grades:42","spec_id":"s7a917350","url":"https://pubs.usgs.gov/bul/0762/report.pdf"},"span":[1539,1637],"type":"pit","units_in":"ft","width_m":3.0},"type":"Feature"}],"properties":{"mine":"Nevada Packard mine (Margrave cut)","schema":"nwmm-workings/1"},"type":"FeatureCollection"}