{"features":[{"geometry":{"coordinates":[[-115.97533,41.8452,1759.03],[-115.97533,41.8452,1740.13]],"type":"LineString"},"properties":{"azimuth":0.0,"confidence":"described","defaults":["dip_deg"],"depth_m":18.8976,"dip":90.0,"element_id":"e1","fields":{"depth_m":"described","dip_deg":"described"},"height_m":2.5,"layer":"workings","length_m":18.9,"level":"","level_z":null,"mine":"","name":"shaft","notes":"digitised from a written description; not a survey","quote":"A shaft is sunk to a depth of 62 feet and a level turned at the bottom.","source":{"doc":"USGS Bulletin 408, A Reconnaissance of Some Mining Camps in Elko, Lander, and Eureka Counties, Nevada (W.H. Emmons, 1910), p. 82","mine":"Protection mine (Cope district)","mine_id":"grades:51","spec_id":"s71904684","url":"https://pubs.usgs.gov/bul/0408/report.pdf"},"span":[289,363],"type":"shaft","units_in":"ft","width_m":2.5},"type":"Feature"}],"properties":{"mine":"Protection mine (Cope district)","schema":"nwmm-workings/1"},"type":"FeatureCollection"}