{"type":"FeatureCollection","name":"sgmc-jackson-16735","source_query":"official USGS SGMC FeatureServer/3 OBJECTID=16735","features":[{"type":"Feature","id":16735,"geometry":{"type":"Polygon","coordinates":[[[-120.717348918308,38.2573034345027],[-120.715338204835,38.2483763546151],[-120.711878344416,38.230886456856],[-120.711866098582,38.2308230727305],[-120.709747178541,38.2241464103642],[-120.708458843507,38.2213809829991],[-120.705807658185,38.2184211420876],[-120.699825356297,38.2106793837214],[-120.697635597807,38.2074988185097],[-120.695828871972,38.2041569891164],[-120.695768356065,38.2040758182427],[-120.696012299868,38.1980092499312],[-120.695967797329,38.1961828851837],[-120.695464173933,38.1944549166534],[-120.694551517944,38.192797802567],[-120.692153667414,38.1896598222716],[-120.687678013631,38.1854575336677],[-120.68124095041,38.1736323477608],[-120.679965647235,38.1664357502541],[-120.679173064559,38.1647509373501],[-120.677920409709,38.1632414806583],[-120.675058419435,38.1603836231588],[-120.673562519671,38.1590389645228],[-120.672166287987,38.1572178712342],[-120.667055639385,38.1494910519079],[-120.665331502861,38.1461273953677],[-120.664113590355,38.1426381590516],[-120.662747794492,38.1336373927947],[-120.661926636406,38.1300692390625],[-120.66136652425,38.1283111609174],[-120.659877999654,38.1248882004428],[-120.656492500876,38.1181451920546],[-120.65464951724,38.1148247508379],[-120.652547898751,38.1116012339367],[-120.650090073099,38.1085431428334],[-120.646593227244,38.104853526478],[-120.64601352912,38.1059618508872],[-120.645316240626,38.1076866547134],[-120.644859636849,38.1094597737988],[-120.644222666634,38.1130497094683],[-120.644264105918,38.1159382176071],[-120.641334487774,38.1117506972813],[-120.636339332873,38.1039275804441],[-120.632676683169,38.0989394764219],[-120.628689445204,38.094569192731],[-120.623432908403,38.0898537897536],[-120.619918392686,38.087499230801],[-120.617496688292,38.0861924534324],[-120.614330906653,38.0841660234269],[-120.60579028009,38.0798093309532],[-120.599502334511,38.0770045593973],[-120.591021646239,38.0724564008932],[-120.586477726784,38.0697947098331],[-120.582041074258,38.0666028731669],[-120.578984469367,38.064118047416],[-120.577667362193,38.0630486314474],[-120.57136572539,38.0586635455424],[-120.563419938056,38.0546944156508],[-120.562788854501,38.0543676103765],[-120.560065812041,38.050686419998],[-120.557458340538,38.0477103823196],[-120.556352732714,38.0461195393039],[-120.554399042498,38.0428415530363],[-120.552753930769,38.0394580123375],[-120.551650651378,38.0378763327714],[-120.545328971365,38.0326271177231],[-120.542658431841,38.0296833687913],[-120.540242906957,38.0265981563798],[-120.535028884724,38.0185349481681],[-120.533411882178,38.0151471620985],[-120.530907808561,38.0121120532551],[-120.527912875709,38.0072253805354],[-120.525499150152,38.0041264184194],[-120.524047138479,38.0027454525698],[-120.522205397212,38.0016377124767],[-120.518131339769,37.9999847757897],[-120.519116015492,37.9996905234132],[-120.520874367947,37.9989628599418],[-120.521961825311,37.9984510280882],[-120.523301283468,37.9975264485346],[-120.523745116796,37.9970178007504],[-120.524577020529,37.9966564382518],[-120.527019034934,37.9963910300529],[-120.528041206336,37.9958252132225],[-120.528609591077,37.9950084488692],[-120.529629675693,37.9942888936731],[-120.531298666439,37.9939775422194],[-120.531427116542,37.9939723728396],[-120.532276133181,37.9948859987738],[-120.533253642144,37.9957989691185],[-120.5341031834,37.9967623202209],[-120.534948630135,37.9974182067988],[-120.53585163193,37.9975673577018],[-120.536100131989,37.9969014002863],[-120.536085123835,37.9957846110299],[-120.535500500248,37.9953806266969],[-120.535297834032,37.9946672249711],[-120.535353280746,37.9940067758975],[-120.535988493857,37.993393123194],[-120.536877658003,37.992524962616],[-120.537387555233,37.9921651567281],[-120.537809523566,37.9900785328078],[-120.53766689176,37.9890618957488],[-120.53687870993,37.9878948084339],[-120.534732446968,37.9863457463413],[-120.531799388277,37.9841856703874],[-120.531502980166,37.9829618179062],[-120.532725903475,37.9830054009897],[-120.534471960689,37.9836612569281],[-120.536477507951,37.9844649761033],[-120.537371717036,37.9839992375264],[-120.537808647709,37.9830339338266],[-120.539028761087,37.9828739924692],[-120.54013446593,37.9837319603312],[-120.541935728211,37.9837227487418],[-120.542118733899,37.983011935547],[-120.541720545768,37.9821458499197],[-120.54151110895,37.9809803831058],[-120.542653746228,37.9799029506324],[-120.543865092049,37.979137137605],[-120.544893499556,37.9790775962606],[-120.545205686575,37.9811015882684],[-120.545067097188,37.9822326637115],[-120.546120896475,37.9839544357934],[-120.54742133002,37.9849153206198],[-120.548401551895,37.9859773226036],[-120.548914408175,37.9865941143595],[-120.549232784587,37.9878810944932],[-120.548857474749,37.9886471787612],[-120.547906520884,37.9896694549787],[-120.547398834408,37.9901784977979],[-120.547284330651,37.9911964454057],[-120.546146554156,37.992680893622],[-120.546220723558,37.9933904053897],[-120.546617385451,37.9941525087314],[-120.547337236031,37.9950124125708],[-120.548700745682,37.9958734977617],[-120.549490587599,37.9971399796969],[-120.550215343878,37.998067671807],[-120.550957157369,38.003159746542],[-120.551438952601,38.0054452257181],[-120.552918361093,38.0053380071602],[-120.554188601363,38.004056225207],[-120.553460886931,38.0026357051394],[-120.554013072353,38.0006523191639],[-120.553803054325,37.9994325724638],[-120.552196076079,37.9972796211255],[-120.551923759886,37.9962094130295],[-120.5520355139,37.9949879918049],[-120.551767485365,37.9942297596526],[-120.551306312756,37.993468012502],[-120.550973852558,37.9927055919654],[-120.550847545836,37.9916165497404],[-120.551399371932,37.9909218796855],[-120.552029284084,37.9899509897771],[-120.553181244976,37.9894883119451],[-120.553432898122,37.9890800612942],[-120.552503793081,37.9870999634591],[-120.551578294777,37.9853775720319],[-120.551115568082,37.9845163777948],[-120.550716361262,37.9836005934701],[-120.550187091863,37.98258601558],[-120.549624552459,37.9814947428533],[-120.549862182004,37.9801235251958],[-120.549848939938,37.9792057508582],[-120.551026942991,37.9803390370907],[-120.552872859628,37.9814145839666],[-120.556872343427,37.9832022814448],[-120.56109922047,37.9846179030746],[-120.565022895442,37.9861977656263],[-120.565218800938,37.9864499248463],[-120.568128364193,37.9892829645667],[-120.575816721316,37.9960103778796],[-120.580074873205,38.0002827320263],[-120.584658597909,38.0043451448942],[-120.586308581202,38.0056021152599],[-120.591718019349,38.0089724508292],[-120.596958597579,38.0125017179983],[-120.608288154434,38.0214988934137],[-120.611192341272,38.0243082480067],[-120.619454350858,38.033005205908],[-120.630447134703,38.0422641624765],[-120.631913404435,38.0436616733693],[-120.634380008424,38.046717124207],[-120.638838077684,38.0550599504418],[-120.640029263514,38.056608307603],[-120.641420883246,38.0580514540996],[-120.643040757706,38.059334933382],[-120.648686926185,38.0624523299071],[-120.66429707215,38.0701061748324],[-120.666303461133,38.0729562574439],[-120.668880397104,38.0759565349433],[-120.681310666863,38.08898912219],[-120.685272155519,38.0934372096632],[-120.692323633157,38.1027741942435],[-120.70360394347,38.1185603371246],[-120.705048835095,38.119971638855],[-120.706691322845,38.121241185539],[-120.715423757687,38.1271322354724],[-120.722769333868,38.1341021800021],[-120.72551487104,38.137016780831],[-120.726740400362,38.1385477215542],[-120.737739834435,38.1544584163951],[-120.742787562339,38.1605379937981],[-120.745049926263,38.1636751299501],[-120.749125414722,38.1721516329919],[-120.751147779345,38.1754089085801],[-120.753570082017,38.1789578745239],[-120.752886655427,38.1789676589547],[-120.752507295984,38.1788844411144],[-120.751679122056,38.1787003986199],[-120.751009781948,38.1785468665152],[-120.750626438477,38.1784047399292],[-120.748907619978,38.1773888708062],[-120.747311523026,38.1765488421505],[-120.745593191414,38.1761630282991],[-120.743817110707,38.1763261072872],[-120.743060500167,38.1768304626148],[-120.74287530259,38.1773350164154],[-120.743705850765,38.1778273501177],[-120.74491571257,38.1781672124744],[-120.745937768089,38.1787623423983],[-120.7467709106,38.1795039639389],[-120.747478138951,38.1803508066518],[-120.747867852376,38.1811955401992],[-120.748197685901,38.1823943222264],[-120.747887015238,38.1830494667896],[-120.747193777248,38.1835533843972],[-120.746238383011,38.183261439764],[-120.745449611886,38.1829228940615],[-120.745278896948,38.1829559182436],[-120.744337380783,38.1836248783708],[-120.744220193758,38.1845777282914],[-120.74442089985,38.1855735156289],[-120.745567799634,38.1859683097518],[-120.746650162652,38.1862593199843],[-120.747613249163,38.1873037544864],[-120.747692056567,38.1888036965168],[-120.747385832564,38.1899030912384],[-120.746506683735,38.1908617452602],[-120.745433974013,38.1915181064139],[-120.743659950448,38.1918850516078],[-120.742007225496,38.1916934500384],[-120.740683168955,38.1912046992495],[-120.739013782051,38.1907683818434],[-120.737550079704,38.1904302402867],[-120.736472407688,38.1905878579056],[-120.73667450078,38.1917332551683],[-120.737632872932,38.1923290452521],[-120.738277846238,38.193326097702],[-120.738096466501,38.1942250423589],[-120.737024811401,38.1949855359079],[-120.735631695075,38.1953449335169],[-120.731074901863,38.1893449823009],[-120.726273117412,38.183097742916],[-120.72109926694,38.177270455779],[-120.718656432374,38.1736397169871],[-120.717333536456,38.1714557515036],[-120.715601973558,38.1687853350222],[-120.714776463135,38.1670283825693],[-120.713186251944,38.1650232309851],[-120.711438888579,38.1636627591165],[-120.706844280785,38.1593002379585],[-120.703130061496,38.1556655404536],[-120.701392654159,38.1536797064038],[-120.700567825557,38.1520272173175],[-120.70028093869,38.1504071751749],[-120.699934819607,38.1482665480426],[-120.698891491084,38.145750386355],[-120.69723043336,38.1421650286607],[-120.69581570267,38.1399190394723],[-120.694137416157,38.1381279845382],[-120.691183354854,38.1344888170314],[-120.688804869307,38.1302706395615],[-120.687520258688,38.1276709696274],[-120.686510502003,38.1255948302461],[-120.685546746247,38.1236271359358],[-120.683995293767,38.1212017157627],[-120.682988368572,38.1193748396501],[-120.681566299545,38.1165366902259],[-120.680684653399,38.1139666259635],[-120.678862752323,38.111407635251],[-120.677441138742,38.1086287282557],[-120.672855015536,38.1033364798015],[-120.671424143019,38.1008566749253],[-120.670354242329,38.0987366244266],[-120.669907584698,38.0971465373508],[-120.669897828994,38.0963591487826],[-120.670203705349,38.0957009221427],[-120.670929912407,38.0954200559329],[-120.671691711616,38.0956367431128],[-120.67245774728,38.0961928058558],[-120.674310310551,38.0979273019303],[-120.677437028051,38.1009747686712],[-120.67927201758,38.1045605789603],[-120.682010025074,38.108774176522],[-120.684700097566,38.1127393702646],[-120.687477044333,38.1164868709962],[-120.688841660708,38.1182386110323],[-120.690336449256,38.1196408410895],[-120.691647067001,38.1206187485691],[-120.69268474602,38.1212453883446],[-120.693487531761,38.1209590281129],[-120.693519644736,38.1198992987036],[-120.693010876689,38.1185626764212],[-120.691547124035,38.1160330084033],[-120.689309346102,38.1124630937434],[-120.686573641889,38.10846225917],[-120.685702499744,38.106807048925],[-120.6834834436,38.1047763674664],[-120.682202874501,38.1025990135285],[-120.681819826576,38.1005921623956],[-120.681440627931,38.098902166271],[-120.679888738871,38.096527764173],[-120.676760231926,38.0933766208099],[-120.673725318655,38.0905370865103],[-120.671942575142,38.0891733634763],[-120.666761769913,38.0848276318854],[-120.66116444104,38.0808871207543],[-120.650578581442,38.0726578343764],[-120.645811974119,38.0685035094211],[-120.640024426984,38.0645408224048],[-120.636709136038,38.0611282310919],[-120.634121634083,38.0578740760708],[-120.630862655827,38.055031016272],[-120.628580157064,38.0534392613919],[-120.626403245382,38.0522764486158],[-120.622262373045,38.0508448142185],[-120.618984468184,38.0501541185965],[-120.61551684722,38.0494282584509],[-120.613444787795,38.0486941716907],[-120.612629619676,38.048147202366],[-120.612433507568,38.0475559358106],[-120.612750620049,38.0469752610511],[-120.613478005698,38.0464419620655],[-120.614635167836,38.0460734894051],[-120.616243790897,38.0459827456791],[-120.618707546328,38.0461447459765],[-120.62002751823,38.0467113027576],[-120.62125443994,38.0463695215383],[-120.621425528577,38.0450210679284],[-120.621027745586,38.0436442953088],[-120.620063637691,38.0424155164668],[-120.618201206426,38.0413049941435],[-120.616245511171,38.0402899326389],[-120.614379163252,38.0388809375313],[-120.612746592004,38.0372444790397],[-120.61172348276,38.0351613781054],[-120.609886634617,38.0324453909295],[-120.606528527269,38.0285624369802],[-120.602243424125,38.0241239459629],[-120.598048008779,38.019942510933],[-120.587935164281,38.0108471322074],[-120.57907642092,38.0052301237915],[-120.573797136081,38.0022654293399],[-120.570638113366,38.00042405576],[-120.568795629193,37.9997737734842],[-120.56647671722,37.9999579668682],[-120.563559467979,38.0010767468201],[-120.563214945203,38.0064321861489],[-120.563801014179,38.008414086538],[-120.563688592716,38.010399714321],[-120.563292130249,38.0120567810207],[-120.560816650007,38.0149367568769],[-120.561131689177,38.0175848710478],[-120.564255460203,38.0213213454429],[-120.567273231823,38.0242760295211],[-120.57279321036,38.0278727553355],[-120.573848408324,38.0289477552003],[-120.574234384757,38.0295063699353],[-120.573440035094,38.0302568047582],[-120.572030168782,38.0309744085402],[-120.571097818128,38.0318386368449],[-120.571065721323,38.0329964335365],[-120.572117892862,38.0340353069599],[-120.573034931732,38.0354140793281],[-120.574760296254,38.0370869171593],[-120.576964754775,38.0392003223104],[-120.578502436081,38.0409872676943],[-120.580080443658,38.0422312875696],[-120.582758503878,38.0443465817253],[-120.586527400026,38.0466049842935],[-120.590245910567,38.0486012375262],[-120.594680698191,38.05027669071],[-120.598204979493,38.052590424387],[-120.602276964523,38.0547335506984],[-120.605850648674,38.0563954516999],[-120.609940340396,38.0576425950241],[-120.613890159039,38.0590351469286],[-120.617743530959,38.0614458814479],[-120.622209333816,38.0648751640285],[-120.625365353462,38.0670998983476],[-120.628517754695,38.0690214948705],[-120.633722121836,38.0720161815154],[-120.637179428344,38.0740125881387],[-120.642345896461,38.0776812563755],[-120.644260597997,38.079126100808],[-120.64641389836,38.0806825364597],[-120.648039822973,38.081776249125],[-120.649616912473,38.0827526129488],[-120.651819087476,38.0844082061485],[-120.653499377232,38.0860399710182],[-120.655991495171,38.0881190080399],[-120.65835706564,38.089809684092],[-120.661082788672,38.0924709195998],[-120.663427267596,38.0953247463429],[-120.665218338491,38.0977613817867],[-120.667106029483,38.1008129894445],[-120.669334762279,38.1046093120883],[-120.670899163075,38.1084148362556],[-120.673997923207,38.1175527300637],[-120.676208170472,38.1279573798516],[-120.677993143603,38.1325738968127],[-120.678737071727,38.1345798558228],[-120.679601462134,38.1363767033441],[-120.680591423544,38.1379643693256],[-120.681709901531,38.1393428116012],[-120.687546132863,38.1454815644311],[-120.693773661349,38.153557049088],[-120.695278699674,38.1559705844428],[-120.697155492305,38.1596322057916],[-120.69925193021,38.162902686558],[-120.701883640056,38.1659519258075],[-120.704198271556,38.168690781531],[-120.706285770326,38.1711503146643],[-120.708465081408,38.1738177003467],[-120.709829888226,38.1757522192056],[-120.715049886951,38.1812849121362],[-120.717566932241,38.1847613358136],[-120.72137723174,38.1897106767373],[-120.725792565448,38.195013840689],[-120.731259442772,38.2013566179121],[-120.737272040344,38.2073147036074],[-120.747758135741,38.2200178731259],[-120.751527253772,38.2273804669583],[-120.754408737488,38.2333080074711],[-120.755144375959,38.2350391984237],[-120.755639655803,38.2367993966166],[-120.75553427803,38.2377433440301],[-120.755224953043,38.238199087348],[-120.755010971648,38.238518087767],[-120.753904824835,38.238979743132],[-120.752922214339,38.2387648384439],[-120.751365053964,38.2373344332001],[-120.747434238283,38.2328337163895],[-120.74533310758,38.2307090681012],[-120.744350586018,38.2301449994133],[-120.743255386973,38.2298583371374],[-120.742180784501,38.2301518781368],[-120.741613928692,38.2309268304773],[-120.741476001363,38.2318391977774],[-120.741840356246,38.2336411121321],[-120.742847072133,38.2352932448664],[-120.744912446295,38.2395221579818],[-120.750197434538,38.2534177108192],[-120.750984395558,38.256060130072],[-120.752000160175,38.261439842117],[-120.753198987075,38.2649409367474],[-120.753425797311,38.2667441148004],[-120.752459689766,38.280333100718],[-120.752573758739,38.2830441927415],[-120.753801250879,38.2884093169141],[-120.754608426688,38.291051969299],[-120.757281250628,38.2960621027254],[-120.758183297514,38.2986905500782],[-120.758522728639,38.3004795343307],[-120.758700180043,38.3032039946052],[-120.759460196994,38.3067814510866],[-120.759659890685,38.3104038396479],[-120.760169195027,38.3140104294312],[-120.760513067423,38.3158040267095],[-120.761163984881,38.3175409872358],[-120.762318247258,38.3219821193436],[-120.764239033982,38.3262545039488],[-120.765410402976,38.3297612918603],[-120.768092128322,38.3347722064861],[-120.769192441476,38.3363654402356],[-120.776666050043,38.3444081036518],[-120.781473900817,38.3526424560536],[-120.78723796599,38.3604840606837],[-120.791459711856,38.3698884545379],[-120.793418754234,38.3726320335976],[-120.792896359642,38.3731757725636],[-120.79197404856,38.3738495108458],[-120.790550082291,38.3749806318591],[-120.789607025515,38.3757906097256],[-120.787346056675,38.3719740287901],[-120.78641758315,38.3703659127757],[-120.785342301552,38.3689947750577],[-120.783570934304,38.3672930610208],[-120.780549908089,38.3646795980689],[-120.776348416538,38.3610086189954],[-120.775497539487,38.3595677173229],[-120.774057894023,38.3564435833761],[-120.772258997904,38.3527867739718],[-120.770327278683,38.3497387793257],[-120.76794873205,38.3468935994974],[-120.764805801756,38.3438543546292],[-120.762075214346,38.3413564800993],[-120.761446889517,38.3401634902784],[-120.760757019312,38.3392975346247],[-120.760279871962,38.3383937708867],[-120.759757409098,38.3371864278873],[-120.759406385214,38.3360821854256],[-120.759043165802,38.333635425978],[-120.758680830332,38.3312884705956],[-120.758096135778,38.3279316644242],[-120.757344563889,38.3249843142202],[-120.756937364757,38.3224019115892],[-120.75625712,38.3204610198514],[-120.755701786881,38.3172674324328],[-120.755128702154,38.3134662595533],[-120.753574116351,38.3083977630154],[-120.751899307217,38.3051715722481],[-120.750228506365,38.3023762414981],[-120.748856443855,38.3000051028724],[-120.74828509108,38.2980953582781],[-120.747623530382,38.296159064766],[-120.74640250162,38.2942268052457],[-120.74613905629,38.29284549696],[-120.744546377427,38.2900633450178],[-120.741969344439,38.2857327918836],[-120.739097942515,38.281844284703],[-120.735931704532,38.2783388337583],[-120.733179975273,38.2752748421157],[-120.732385149502,38.2742919430705],[-120.731942067167,38.2731569069478],[-120.731747085139,38.2715666575443],[-120.731874663876,38.26977914055],[-120.73142734778,38.2681907087584],[-120.730480190196,38.2671182322753],[-120.729529579487,38.2656784958462],[-120.728182778501,38.2642687819072],[-120.72434974893,38.2613984655016],[-120.720071299608,38.2581866270159],[-120.717348918308,38.2573034345027]],[[-120.720762609813,38.1568831714912],[-120.723050468823,38.1570429843028],[-120.724043157517,38.1576337978122],[-120.724943543418,38.1579805819552],[-120.726147601207,38.1574096962613],[-120.727079622179,38.1565643917528],[-120.726842950238,38.1554377907633],[-120.725607369667,38.1531857989095],[-120.723157864211,38.1506257245456],[-120.720086843157,38.1486004318252],[-120.718368428901,38.1472719704757],[-120.716505903313,38.1450973410473],[-120.714191089455,38.1425727269469],[-120.712118756044,38.1416365116867],[-120.710159694801,38.140414041476],[-120.708937946489,38.1393991210042],[-120.708387095963,38.1382751623155],[-120.708507860979,38.1371101332681],[-120.708803775016,38.1355996268102],[-120.708162797417,38.134440202762],[-120.70712109125,38.1334965762939],[-120.705720151497,38.1324830830447],[-120.704640767292,38.1321375781691],[-120.703424400787,38.1320240259924],[-120.702943344868,38.1325709707799],[-120.702954966372,38.133558261713],[-120.7032825586,38.1347471358791],[-120.703835881289,38.1360839013469],[-120.704159406844,38.1369286221852],[-120.704214877813,38.1378432364604],[-120.703592602239,38.1382735160649],[-120.702719333782,38.1383477322555],[-120.701422232987,38.138633352357],[-120.700795711975,38.1389685209096],[-120.700203587456,38.1395435322605],[-120.700076147958,38.1402737841957],[-120.700486321411,38.1408733615687],[-120.701397410739,38.1421715490195],[-120.70199765513,38.1437211651135],[-120.702296322504,38.1463331577881],[-120.702888745265,38.1472078671372],[-120.703656896461,38.147768696498],[-120.704695047095,38.1484317932394],[-120.705977784727,38.1491338999473],[-120.706789527571,38.1495267629811],[-120.707373002212,38.1499801764468],[-120.707726580006,38.1504986836597],[-120.707851195201,38.1510777529519],[-120.707294670916,38.1524728193232],[-120.707183746945,38.1545942173569],[-120.707417886535,38.1555078465842],[-120.708151760715,38.1561822483828],[-120.708909161772,38.1566299123181],[-120.712199205568,38.1566649615618],[-120.714134455167,38.1573894943623],[-120.716869542238,38.1574782491742],[-120.718656863565,38.1569711901815],[-120.720762609813,38.1568831714912]]]},"properties":{"fid":16735,"st":"CA","state":"CA","src":"usgs_sgmc_v1_1","source_dataset":"usgs_sgmc_v1_1","source_id":"sgmc:CA:jennings-2010","source_record_id":"16735","source_scale":"1:750,000","source_scale_status":"explicit","source_ref":"Jennings, C.W., with modifications by Gutierrez, C., Bryant, W., Saucedo, G., and Wills, C., 2010, Geologic map of California, Version 2.0 (California Geological Survey 150th Anniversary Edition), Department of Conservation, California Geological Survey: California Geologic Data Map Series, GDM No. 2, scale 1:750,000.","source_url":"https://ngmdb.usgs.gov/Prodesc/proddesc_96750.htm","unit_label":"J","sgmc_label":"J1;0","unit_name":"Jurassic marine rocks, unit 1 (Western Sierra Nevada and Western Klamath Mountains)","description":"Jurassic marine rocks, unit 1 (Western Sierra Nevada and Western Klamath Mountains); major lithologies: Slate, Graywacke; minor lithologies: Siltstone, Conglomerate; incidental: Chert, Volcanic, Basalt","lithology":"Metamorphic and Sedimentary, undifferentiated","age_min":"Phanerozoic - Mesozoic - Jurassic - Late-Jurassic","age_max":"Phanerozoic - Mesozoic - Triassic","official_objectid":16735}}]}
