{"features":[{"geometry":{"coordinates":[[-114.92193,35.46001,1106.73],[-114.92193,35.46001,771.45]],"type":"LineString"},"properties":{"azimuth":0.0,"confidence":"described","defaults":["dip_deg"],"depth_m":335.28,"dip":90.0,"element_id":"e12","fields":{"depth_m":"described","dip_deg":"described"},"height_m":2.5,"layer":"workings","length_m":335.3,"level":"","level_z":null,"mine":"","name":"shaft","notes":"digitised from a written description; not a survey","quote":"A shaft at the quartz monzonite contact 1,100 feet east-northeast of the Fraction shaft of the Duplex mine reveals a vein trending N. 80\u00b0 E. and dipping 60\u00b0 S.","source":{"doc":"USGS Bulletin 906-D, Geology of the Searchlight District, Clark County, Nevada (Eugene Callaghan, 1939), p. 170","mine":"Duplex mine","mine_id":"grades:45","spec_id":"scbf792a9","url":"https://pubs.usgs.gov/bul/0906d/report.pdf"},"span":[11467,11629],"type":"shaft","units_in":"ft","width_m":2.5},"type":"Feature"},{"geometry":{"coordinates":[[-114.92193,35.46001,1106.73],[-114.92193,35.46001,1042.73]],"type":"LineString"},"properties":{"azimuth":0.0,"confidence":"described","defaults":["dip_deg"],"depth_m":64.008,"dip":90.0,"element_id":"e2","fields":{"depth_m":"described","dip_deg":"described","secondary_m":"described"},"height_m":2.5,"layer":"workings","length_m":64.0,"level":"","level_z":null,"mine":"","name":"shaft","notes":"digitised from a written description; not a survey","quote":"The vein has been explored by two shafts, one 210 feet deep and the other about 370 feet deep on the incline, together with 1,350 feet of drifts and 920 feet of crosscuts on four levels, shown in plate 47.","source":{"doc":"USGS Bulletin 906-D, Geology of the Searchlight District, Clark County, Nevada (Eugene Callaghan, 1939), p. 170","mine":"Duplex mine","mine_id":"grades:45","spec_id":"scbf792a9","url":"https://pubs.usgs.gov/bul/0906d/report.pdf"},"span":[8168,8376],"type":"shaft","units_in":"ft","width_m":2.5},"type":"Feature"},{"geometry":{"coordinates":[[-114.92193,35.46001,1106.73],[-114.92193,35.46001,1104.91]],"type":"LineString"},"properties":{"azimuth":0.0,"confidence":"described","defaults":["dip_deg"],"depth_m":1.8288,"dip":90.0,"element_id":"e7","fields":{"depth_m":"described","dip_deg":"described"},"height_m":2.5,"layer":"workings","length_m":1.8,"level":"","level_z":null,"mine":"","name":"shaft","notes":"digitised from a written description; not a survey","quote":"The vein material near the surface in the vicinity of the air shaft consists of a zone 6 feet wide made up largely of altered rock but contains 26 inches of quartz-cemented breccia on the footwall and 6 inches on the hang- ing wall.","source":{"doc":"USGS Bulletin 906-D, Geology of the Searchlight District, Clark County, Nevada (Eugene Callaghan, 1939), p. 170","mine":"Duplex mine","mine_id":"grades:45","spec_id":"scbf792a9","url":"https://pubs.usgs.gov/bul/0906d/report.pdf"},"span":[9084,9321],"type":"shaft","units_in":"ft","width_m":2.5},"type":"Feature"},{"geometry":{"coordinates":[[-114.92193,35.46001,1106.73],[-114.92193,35.46001,1104.91]],"type":"LineString"},"properties":{"azimuth":0.0,"confidence":"described","defaults":["dip_deg"],"depth_m":1.8288,"dip":90.0,"element_id":"e8","fields":{"depth_m":"described","dip_deg":"described","secondary_m":"described"},"height_m":2.5,"layer":"workings","length_m":1.8,"level":"","level_z":null,"mine":"","name":"COPPER STAIN\n1 AIR","notes":"digitised from a written description; not a survey","quote":"GEOLOGICAL SURVEY BULLETIN 906 PLATE 47 VEIN PINCHES TO A GOUGE SEAM WITH A LITTLE } COPPER STAIN 1 AIR SHAFT , VEIN 6' WIDE WITH 26 QUARTZ-CEMENTED BRECCIA ON FOOTWALL AND 6 ON HANGING WALL ANDESITE PORPHYRY IN VEIN BUTHORNFELS IN HANGING WALL AND FOOTWALL LENSES OF WHITE QUARTZ !2w/DE 4O VEIN A LITTLE COP- CAVED 1931 A LITTLE QUARTZ AND COPPER STAIN IN SHA TTERED HORNFEL S 30 'VEIN, IS\"QUARTZ- CEMENT ED BRECCIA 3O OfCRUSHED QUARTZ AND BRECCIA A LITTL\u00a3 Q(JAKT2 AND A VERY LITTLE COPPER STAIN A LITTLE QUARTZ ANDESITE PORPHYRY A LITTLE QUARTZ .ZOO-FOOT LEVEL +00-FOOT STATION 12 TO i8\"GouGE AND >, CRUSHED PORPHYRY \"-CONTACT ON 3OO-FOOTLEVEL ANDESITE PORPHYRY EXPLANATION Gouge seam, showing dip Quartz vein'm'aterial Andesite porphyry","source":{"doc":"USGS Bulletin 906-D, Geology of the Searchlight District, Clark County, Nevada (Eugene Callaghan, 1939), p. 170","mine":"Duplex mine","mine_id":"grades:45","spec_id":"scbf792a9","url":"https://pubs.usgs.gov/bul/0906d/report.pdf"},"span":[10329,11093],"type":"shaft","units_in":"ft","width_m":2.5},"type":"Feature"},{"geometry":{"coordinates":[[-114.92193,35.46001,1106.73],[-114.92193,35.46001,801.93]],"type":"LineString"},"properties":{"azimuth":0.0,"confidence":"described","defaults":["dip_deg"],"depth_m":304.8,"dip":90.0,"element_id":"e9","fields":{"depth_m":"described","dip_deg":"described"},"height_m":2.5,"layer":"workings","length_m":304.8,"level":"","level_z":null,"mine":"","name":"Fraction","notes":"digitised from a written description; not a survey","quote":"A vein 1,000 feet southeast of the Fraction shaft of the Duplex mine, as revealed by a shaft and pits, strikes N. 58\u00b0 W. and dips 58\u00b0 SW.","source":{"doc":"USGS Bulletin 906-D, Geology of the Searchlight District, Clark County, Nevada (Eugene Callaghan, 1939), p. 170","mine":"Duplex mine","mine_id":"grades:45","spec_id":"scbf792a9","url":"https://pubs.usgs.gov/bul/0906d/report.pdf"},"span":[11093,11232],"type":"shaft","units_in":"ft","width_m":2.5},"type":"Feature"},{"geometry":{"coordinates":[[-114.92193,35.46001,1106.73],[-114.921897,35.4600094,1106.73]],"type":"LineString"},"properties":{"confidence":"described","defaults":[],"element_id":"e10","fields":{"bearing_deg":"described","dip_deg":"described"},"height_m":2.0,"layer":"workings","length_m":3.0,"level":"","level_z":null,"mine":"","name":"pit","notes":"digitised from a written description; not a survey","quote":"A vein 1,000 feet southeast of the Fraction shaft of the Duplex mine, as revealed by a shaft and pits, strikes N. 58\u00b0 W. and dips 58\u00b0 SW.","source":{"doc":"USGS Bulletin 906-D, Geology of the Searchlight District, Clark County, Nevada (Eugene Callaghan, 1939), p. 170","mine":"Duplex mine","mine_id":"grades:45","spec_id":"scbf792a9","url":"https://pubs.usgs.gov/bul/0906d/report.pdf"},"span":[11093,11232],"type":"pit","units_in":"ft","width_m":3.0},"type":"Feature"},{"geometry":{"coordinates":[[-114.92193,35.46001,1106.73],[-114.9207887,35.4599903,1106.73]],"type":"LineString"},"properties":{"confidence":"described","defaults":[],"element_id":"e6","fields":{"length_m":"described","secondary_m":"described"},"height_m":2.0,"layer":"workings","length_m":103.6,"level":"","level_z":null,"mine":"","name":"pit","notes":"digitised from a written description; not a survey","quote":"The vein has been explored for a length of 340 feet underground, and pits on the surface indicate a length of 1,000 feet.","source":{"doc":"USGS Bulletin 906-D, Geology of the Searchlight District, Clark County, Nevada (Eugene Callaghan, 1939), p. 170","mine":"Duplex mine","mine_id":"grades:45","spec_id":"scbf792a9","url":"https://pubs.usgs.gov/bul/0906d/report.pdf"},"span":[8961,9084],"type":"pit","units_in":"ft","width_m":3.0},"type":"Feature"}],"properties":{"mine":"Duplex mine","schema":"nwmm-workings/1"},"type":"FeatureCollection"}