{"features":[{"geometry":{"coordinates":[[-116.80922,36.91329,1227.34],[-116.80922,36.91329,983.5]],"type":"LineString"},"properties":{"azimuth":49.0,"confidence":"described","defaults":["dip_deg"],"depth_m":243.84,"dip":90.0,"element_id":"e1","fields":{"bearing_deg":"described","depth_m":"described","dip_deg":"described","secondary_m":"described"},"height_m":2.5,"layer":"workings","length_m":243.8,"level":"","level_z":null,"mine":"","name":"Montgomery-Shoshone","notes":"digitised from a written description; not a survey","quote":"A mile N. 49 \u00b0 E. of the Montgomery-Shoshone shaft there is a group of prominent rock outcrops 800 feet long and 100 feet wide, which trends N. 30 \u00b0 E.","source":{"doc":"USGS Bulletin 407, Geology and Ore Deposits of the Bullfrog District, Nevada (Ransome, Emmons & Garrey, 1910), p. 91","mine":"Montgomery-Shoshone mine (bonanza ore above 200-foot level)","mine_id":"grades:0","spec_id":"s405ab08e","url":"https://pubs.usgs.gov/bul/0407/report.pdf"},"span":[1508,1662],"type":"shaft","units_in":"ft","width_m":2.5},"type":"Feature"},{"geometry":{"coordinates":[[-116.80922,36.91329,1227.34],[-116.80922,36.91329,962.16]],"type":"LineString"},"properties":{"azimuth":0.0,"confidence":"described","defaults":["dip_deg"],"depth_m":265.176,"dip":90.0,"element_id":"e5","fields":{"depth_m":"described","dip_deg":"described"},"height_m":2.5,"layer":"workings","length_m":265.2,"level":"","level_z":null,"mine":"","name":"shaft","notes":"digitised from a written description; not a survey","quote":"The new shaft is about 870 feet northeast of the main shaft of the Montgomery-Shoshone mine and is in rhyolite No. 10.","source":{"doc":"USGS Bulletin 407, Geology and Ore Deposits of the Bullfrog District, Nevada (Ransome, Emmons & Garrey, 1910), p. 91","mine":"Montgomery-Shoshone mine (bonanza ore above 200-foot level)","mine_id":"grades:0","spec_id":"s405ab08e","url":"https://pubs.usgs.gov/bul/0407/report.pdf"},"span":[12000,12121],"type":"shaft","units_in":"ft","width_m":2.5},"type":"Feature"}],"properties":{"mine":"Montgomery-Shoshone mine (bonanza ore above 200-foot level)","schema":"nwmm-workings/1"},"type":"FeatureCollection"}